NOAA 1 [-]              
1 04793U 70106A   23332.74435236 -.00000017  00000+0  16165-3 0  9994
2 04793 101.4809  26.5578 0031453  11.2467 101.7356 12.54021470423938
NOAA 2 (ITOS-D) [-]     
1 06235U 72082A   23332.82992240 -.00000029  00000+0  10762-3 0  9994
2 06235 102.0059 324.5748 0004053 142.1371 282.9412 12.53171202338285
NOAA 3 [-]              
1 06920U 73086A   23332.96803771 -.00000037  00000+0  70164-4 0  9997
2 06920 102.2638 322.3255 0006702  35.5688  20.8435 12.40360922266637
NOAA 4 [-]              
1 07529U 74089A   23333.46818775 -.00000035  00000+0  69201-4 0  9991
2 07529 101.9736 321.0100 0008889 170.0386 358.1127 12.53174299243185
NOAA 5 [-]              
1 09057U 76077A   23332.86761597 -.00000030  00000+0  12094-3 0  9992
2 09057 102.1797 301.8806 0009460 246.5890 168.3173 12.37792177139243
TIROS N [-]             
1 11060U 78096A   23333.14308618  .00000376  00000+0  20149-3 0  9997
2 11060  98.5622  15.7699 0011395  60.0878 300.1428 14.18681728546949
NOAA 6 [-]              
1 11416U 79057A   23332.65719175  .00000725  00000+0  27407-3 0  9991
2 11416  98.6439 349.0146 0011058 132.3118 227.9005 14.34255651317366
NOAA 7 [-]              
1 12553U 81059A   23332.73855978  .00000159  00000+0  10049-3 0  9995
2 12553  98.9251  26.5810 0012231  52.5382 307.6903 14.17461643192779
NOAA 8 [-]              
1 13923U 83022A   23332.86390566  .00000395  00000+0  17304-3 0  9993
2 13923  98.7228 327.5800 0016070 100.9299 259.3691 14.29096670118015
NOAA 9 [-]              
1 15427U 84123A   23332.86531039  .00000346  00000+0  19724-3 0  9993
2 15427  99.1061 320.5224 0015736 105.0807 316.6113 14.16462739 11543
NOAA 10 [-]             
1 16969U 86073A   23332.90843078  .00000355  00000+0  15900-3 0  9997
2 16969  98.6220 315.9776 0011722 196.8324 224.9538 14.28474040936414
NOAA 11 [-]             
1 19531U 88089A   23332.83102726  .00000180  00000+0  11345-3 0  9999
2 19531  98.4902 299.6114 0012294  93.7568 266.5013 14.15457128815703
NOAA 12 [-]             
1 21263U 91032A   23332.86557311  .00000282  00000+0  13547-3 0  9992
2 21263  98.5441 323.7075 0012801 227.4905 132.5194 14.26203057692186
NOAA 13 [-]             
1 22739U 93050A   23332.85089572  .00000350  00000+0  20977-3 0  9992
2 22739  98.5783 293.3438 0008393 269.9705  90.0506 14.13091948561819
NOAA 14 [-]             
1 23455U 94089A   23332.89667418  .00000156  00000+0  10288-3 0  9994
2 23455  98.4268 335.1571 0008480 238.1470 121.8879 14.14325596491547
NOAA 15 [B]             
1 25338U 98030A   23333.49354938  .00000389  00000+0  17951-3 0  9995
2 25338  98.5906 359.6137 0010206 185.4964 174.6106 14.26443718328828
NOAA 16 [-]             
1 26536U 00055A   23333.48062471  .00000245  00000+0  15199-3 0  9996
2 26536  98.5617  16.9681 0011576  90.9565 269.2935 14.13497383195728
NOAA 17 [-]             
1 27453U 02032A   23332.83342409  .00000431  00000+0  20147-3 0  9998
2 27453  98.7374 278.8535 0011836 168.1457 192.0003 14.25427150114260
NOAA 18 [B]             
1 28654U 05018A   23333.40890854  .00000440  00000+0  25950-3 0  9992
2 28654  98.8960  46.8894 0013316 272.0287  87.9360 14.13066469954908
NOAA 19 [+]             
1 33591U 09005A   23333.47458597  .00000383  00000+0  23019-3 0  9999
2 33591  99.0784  21.8763 0014511 135.5475 224.6863 14.12875936763282
SUOMI NPP [+]           
1 37849U 11061A   23333.46550424  .00000260  00000+0  14393-3 0  9994
2 37849  98.7209 269.4683 0001499  97.1199  13.4075 14.19558507626385
NOAA 20 [+]             
1 43013U 17073A   23333.47894356  .00000236  00000+0  13276-3 0  9991
2 43013  98.7288 269.3936 0001421  68.1022 292.0305 14.19544144312420
NOAA 21 (JPSS-2) [+]    
1 54234U 22150A   23333.07264762  .00000267  00000+0  14721-3 0  9998
2 54234  98.7324 268.5307 0000985  60.5058 299.6216 14.19538351 54442
